GOES 13
1 29155U 06018A   24101.50746969 -.00000286  00000-0  00000-0 0  9998
2 29155   2.4496  86.0367 0087577 252.8640 197.1716  0.99158644 35365